[Satellite]
VERSION=1.1
NAME=FORMOSAT 3D
NICKNAME=FORMOSAT 3D
TLE1=1 29050U 06011D   17186.26113804  .00000124  00000-0  36562-4 0  9995
TLE2=2 29050  72.0164 123.9284 0048659 125.2365 235.3356 14.58522400599105
